[{"OBJECT_NAME":"SUPERVIEW NEO-2 01","OBJECT_ID":"2022-082A","EPOCH":"2026-03-09T23:46:34.771008","MEAN_MOTION":15.24506379,"ECCENTRICITY":0.00017316,"INCLINATION":97.394,"RA_OF_ASC_NODE":80.2484,"ARG_OF_PERICENTER":88.8448,"MEAN_ANOMALY":271.2988,"EPHEMERIS_TYPE":0,"CLASSIFICATION_TYPE":"U","NORAD_CAT_ID":53128,"ELEMENT_SET_NO":999,"REV_AT_EPOCH":20309,"BSTAR":0.00036489892,"MEAN_MOTION_DOT":8.905e-5,"MEAN_MOTION_DDOT":0},{"OBJECT_NAME":"ION SCV-010","OBJECT_ID":"2023-054Q","EPOCH":"2026-03-09T16:02:35.904768","MEAN_MOTION":15.25210322,"ECCENTRICITY":0.00127052,"INCLINATION":97.3904,"RA_OF_ASC_NODE":319.4312,"ARG_OF_PERICENTER":188.785,"MEAN_ANOMALY":171.3168,"EPHEMERIS_TYPE":0,"CLASSIFICATION_TYPE":"U","NORAD_CAT_ID":56192,"ELEMENT_SET_NO":999,"REV_AT_EPOCH":16102,"BSTAR":0.00025045068,"MEAN_MOTION_DOT":6.231e-5,"MEAN_MOTION_DDOT":0}]
